SL-8 R/B                
1 11574U 79089B   26114.86906338  .00000176  00000+0  61066-4 0  9994
2 11574  74.0711   5.5607 0015669 169.6948 190.4533 14.42378540442769
SL-14 R/B               
1 11672U 80005B   26114.83409781  .00000478  00000+0  45771-4 0  9990
2 11672  82.5125 263.4484 0015997  15.1250 345.0444 14.90980371483368
SL-8 R/B                
1 12139U 81003B   26114.86394770  .00012179  00000+0  30251-3 0  9999
2 12139  82.9359 247.2585 0256260  18.2322 342.7887 15.12797613321654
SL-3 R/B                
1 12465U 81046B   26114.84043000  .00010239  00000+0  22960-3 0  9996
2 12465  81.2309 234.2720 0018438 216.3215 143.6779 15.43080884445547
SL-3 R/B                
1 12904U 81103B   26114.80361361  .00003497  00000+0  15239-3 0  9996
2 12904  81.1583 159.3268 0014259 128.6857 231.5653 15.21842877980249
SL-3 R/B                
1 13068U 82013B   26114.79419513  .00004124  00000+0  17628-3 0  9992
2 13068  81.1714 106.7077 0022722  27.9945 332.2503 15.22385435411362
SL-3 R/B                
1 13154U 82039B   26114.83761660  .00001242  00000+0  73692-4 0  9996
2 13154  81.1485 162.7292 0028350 167.3798 192.8144 15.10297371388601
SL-3 R/B                
1 13403U 82079B   26114.79095554  .00003865  00000+0  15121-3 0  9999
2 13403  81.1446 138.6231 0024300  13.5046 346.6832 15.25305297384724
SL-14 R/B               
1 13553U 82092B   26114.48954426  .00000343  00000+0  35615-4 0  9997
2 13553  82.5650  98.5441 0021215 145.5160 334.6990 14.86703880335739
SL-3 R/B                
1 13819U 83010B   26114.61722174  .00011159  00000+0  21420-3 0  9996
2 13819  81.1012 305.8697 0015128 245.4802 114.4867 15.47701363365043
SL-3 R/B                
1 14208U 83075B   26114.78694020  .00009634  00000+0  24597-3 0  9999
2 14208  97.6133 121.1491 0022941  67.4054 292.9615 15.39438785337245
COSMOS 1536             
1 14699U 84013A   26114.87374157  .00006233  00000+0  25190-3 0  9994
2 14699  82.5445  61.9096 0016099 116.2101 244.0794 15.24432520279654
SL-14 R/B               
1 14820U 84027B   26114.68391632  .00000311  00000+0  32702-4 0  9990
2 14820  82.5445 201.8837 0018088 176.3087 183.8266 14.86021246254460
SL-8 R/B                
1 15483U 85006B   26114.65991446  .00000144  00000+0  56400-4 0  9995
2 15483  74.0456 176.5618 0017194  78.8823  35.8727 14.37811013160638
SL-12 R/B(2)            
1 15772U 85042D   26114.84337755  .00000115  00000+0  72892-4 0  9995
2 15772  71.1097 350.2207 0033406  51.6631  22.7968 14.21994717120952
SL-14 R/B               
1 15945U 85069B   26114.72191405  .00000299  00000+0  30935-4 0  9998
2 15945  82.5276 341.6580 0019858  43.4403 316.8374 14.86476087179675
SL-16 R/B               
1 16182U 85097B   26114.88406008 -.00000212  00000+0 -82290-4 0  9996
2 16182  71.0044  43.2972 0008144 202.9652 214.6656 14.16606490 93779
