[{"OBJECT_NAME":"SL-8 R/B","OBJECT_ID":"1979-089B","EPOCH":"2026-04-24T20:51:27.076032","MEAN_MOTION":14.4237854,"ECCENTRICITY":0.0015669,"INCLINATION":74.0711,"RA_OF_ASC_NODE":5.5607,"ARG_OF_PERICENTER":169.6948,"MEAN_ANOMALY":190.4533,"EPHEMERIS_TYPE":0,"CLASSIFICATION_TYPE":"U","NORAD_CAT_ID":11574,"ELEMENT_SET_NO":999,"REV_AT_EPOCH":44276,"BSTAR":6.1066e-5,"MEAN_MOTION_DOT":1.76e-6,"MEAN_MOTION_DDOT":0},{"OBJECT_NAME":"SL-14 R/B","OBJECT_ID":"1980-005B","EPOCH":"2026-04-24T20:01:06.050784","MEAN_MOTION":14.90980371,"ECCENTRICITY":0.0015997,"INCLINATION":82.5125,"RA_OF_ASC_NODE":263.4484,"ARG_OF_PERICENTER":15.125,"MEAN_ANOMALY":345.0444,"EPHEMERIS_TYPE":0,"CLASSIFICATION_TYPE":"U","NORAD_CAT_ID":11672,"ELEMENT_SET_NO":999,"REV_AT_EPOCH":48336,"BSTAR":4.5771e-5,"MEAN_MOTION_DOT":4.78e-6,"MEAN_MOTION_DDOT":0},{"OBJECT_NAME":"SL-8 R/B","OBJECT_ID":"1981-003B","EPOCH":"2026-04-24T20:44:05.081280","MEAN_MOTION":15.12797613,"ECCENTRICITY":0.025626,"INCLINATION":82.9359,"RA_OF_ASC_NODE":247.2585,"ARG_OF_PERICENTER":18.2322,"MEAN_ANOMALY":342.7887,"EPHEMERIS_TYPE":0,"CLASSIFICATION_TYPE":"U","NORAD_CAT_ID":12139,"ELEMENT_SET_NO":999,"REV_AT_EPOCH":32165,"BSTAR":0.00030251,"MEAN_MOTION_DOT":0.00012179,"MEAN_MOTION_DDOT":0},{"OBJECT_NAME":"SL-3 R/B","OBJECT_ID":"1981-046B","EPOCH":"2026-04-24T20:10:13.152000","MEAN_MOTION":15.43080884,"ECCENTRICITY":0.0018438,"INCLINATION":81.2309,"RA_OF_ASC_NODE":234.272,"ARG_OF_PERICENTER":216.3215,"MEAN_ANOMALY":143.6779,"EPHEMERIS_TYPE":0,"CLASSIFICATION_TYPE":"U","NORAD_CAT_ID":12465,"ELEMENT_SET_NO":999,"REV_AT_EPOCH":44554,"BSTAR":0.0002296,"MEAN_MOTION_DOT":0.00010239,"MEAN_MOTION_DDOT":0},{"OBJECT_NAME":"SL-3 R/B","OBJECT_ID":"1981-103B","EPOCH":"2026-04-24T19:17:12.215904","MEAN_MOTION":15.21842877,"ECCENTRICITY":0.0014259,"INCLINATION":81.1583,"RA_OF_ASC_NODE":159.3268,"ARG_OF_PERICENTER":128.6857,"MEAN_ANOMALY":231.5653,"EPHEMERIS_TYPE":0,"CLASSIFICATION_TYPE":"U","NORAD_CAT_ID":12904,"ELEMENT_SET_NO":999,"REV_AT_EPOCH":98024,"BSTAR":0.00015239,"MEAN_MOTION_DOT":3.497e-5,"MEAN_MOTION_DDOT":0},{"OBJECT_NAME":"SL-3 R/B","OBJECT_ID":"1982-013B","EPOCH":"2026-04-24T19:03:38.459232","MEAN_MOTION":15.22385435,"ECCENTRICITY":0.0022722,"INCLINATION":81.1714,"RA_OF_ASC_NODE":106.7077,"ARG_OF_PERICENTER":27.9945,"MEAN_ANOMALY":332.2503,"EPHEMERIS_TYPE":0,"CLASSIFICATION_TYPE":"U","NORAD_CAT_ID":13068,"ELEMENT_SET_NO":999,"REV_AT_EPOCH":41136,"BSTAR":0.00017628,"MEAN_MOTION_DOT":4.124e-5,"MEAN_MOTION_DDOT":0},{"OBJECT_NAME":"SL-3 R/B","OBJECT_ID":"1982-039B","EPOCH":"2026-04-24T20:06:10.074240","MEAN_MOTION":15.10297371,"ECCENTRICITY":0.002835,"INCLINATION":81.1485,"RA_OF_ASC_NODE":162.7292,"ARG_OF_PERICENTER":167.3798,"MEAN_ANOMALY":192.8144,"EPHEMERIS_TYPE":0,"CLASSIFICATION_TYPE":"U","NORAD_CAT_ID":13154,"ELEMENT_SET_NO":999,"REV_AT_EPOCH":38860,"BSTAR":7.3692e-5,"MEAN_MOTION_DOT":1.242e-5,"MEAN_MOTION_DDOT":0},{"OBJECT_NAME":"SL-3 R/B","OBJECT_ID":"1982-079B","EPOCH":"2026-04-24T18:58:58.558656","MEAN_MOTION":15.25305297,"ECCENTRICITY":0.00243,"INCLINATION":81.1446,"RA_OF_ASC_NODE":138.6231,"ARG_OF_PERICENTER":13.5046,"MEAN_ANOMALY":346.6832,"EPHEMERIS_TYPE":0,"CLASSIFICATION_TYPE":"U","NORAD_CAT_ID":13403,"ELEMENT_SET_NO":999,"REV_AT_EPOCH":38472,"BSTAR":0.00015121,"MEAN_MOTION_DOT":3.865e-5,"MEAN_MOTION_DDOT":0},{"OBJECT_NAME":"SL-14 R/B","OBJECT_ID":"1982-092B","EPOCH":"2026-04-24T11:44:56.624064","MEAN_MOTION":14.8670388,"ECCENTRICITY":0.0021215,"INCLINATION":82.565,"RA_OF_ASC_NODE":98.5441,"ARG_OF_PERICENTER":145.516,"MEAN_ANOMALY":334.699,"EPHEMERIS_TYPE":0,"CLASSIFICATION_TYPE":"U","NORAD_CAT_ID":13553,"ELEMENT_SET_NO":999,"REV_AT_EPOCH":33573,"BSTAR":3.5615e-5,"MEAN_MOTION_DOT":3.43e-6,"MEAN_MOTION_DDOT":0},{"OBJECT_NAME":"SL-3 R/B","OBJECT_ID":"1983-010B","EPOCH":"2026-04-24T14:48:47.958336","MEAN_MOTION":15.47701363,"ECCENTRICITY":0.0015128,"INCLINATION":81.1012,"RA_OF_ASC_NODE":305.8697,"ARG_OF_PERICENTER":245.4802,"MEAN_ANOMALY":114.4867,"EPHEMERIS_TYPE":0,"CLASSIFICATION_TYPE":"U","NORAD_CAT_ID":13819,"ELEMENT_SET_NO":999,"REV_AT_EPOCH":36504,"BSTAR":0.0002142,"MEAN_MOTION_DOT":0.00011159,"MEAN_MOTION_DDOT":0},{"OBJECT_NAME":"SL-3 R/B","OBJECT_ID":"1983-075B","EPOCH":"2026-04-24T18:53:11.633280","MEAN_MOTION":15.39438785,"ECCENTRICITY":0.0022941,"INCLINATION":97.6133,"RA_OF_ASC_NODE":121.1491,"ARG_OF_PERICENTER":67.4054,"MEAN_ANOMALY":292.9615,"EPHEMERIS_TYPE":0,"CLASSIFICATION_TYPE":"U","NORAD_CAT_ID":14208,"ELEMENT_SET_NO":999,"REV_AT_EPOCH":33724,"BSTAR":0.00024597,"MEAN_MOTION_DOT":9.634e-5,"MEAN_MOTION_DDOT":0},{"OBJECT_NAME":"COSMOS 1536","OBJECT_ID":"1984-013A","EPOCH":"2026-04-24T20:58:11.271648","MEAN_MOTION":15.2443252,"ECCENTRICITY":0.0016099,"INCLINATION":82.5445,"RA_OF_ASC_NODE":61.9096,"ARG_OF_PERICENTER":116.2101,"MEAN_ANOMALY":244.0794,"EPHEMERIS_TYPE":0,"CLASSIFICATION_TYPE":"U","NORAD_CAT_ID":14699,"ELEMENT_SET_NO":999,"REV_AT_EPOCH":27965,"BSTAR":0.0002519,"MEAN_MOTION_DOT":6.233e-5,"MEAN_MOTION_DDOT":0},{"OBJECT_NAME":"SL-14 R/B","OBJECT_ID":"1984-027B","EPOCH":"2026-04-24T16:24:50.370048","MEAN_MOTION":14.86021246,"ECCENTRICITY":0.0018088,"INCLINATION":82.5445,"RA_OF_ASC_NODE":201.8837,"ARG_OF_PERICENTER":176.3087,"MEAN_ANOMALY":183.8266,"EPHEMERIS_TYPE":0,"CLASSIFICATION_TYPE":"U","NORAD_CAT_ID":14820,"ELEMENT_SET_NO":999,"REV_AT_EPOCH":25446,"BSTAR":3.2702e-5,"MEAN_MOTION_DOT":3.11e-6,"MEAN_MOTION_DDOT":0},{"OBJECT_NAME":"SL-8 R/B","OBJECT_ID":"1985-006B","EPOCH":"2026-04-24T15:50:16.609344","MEAN_MOTION":14.37811013,"ECCENTRICITY":0.0017194,"INCLINATION":74.0456,"RA_OF_ASC_NODE":176.5618,"ARG_OF_PERICENTER":78.8823,"MEAN_ANOMALY":35.8727,"EPHEMERIS_TYPE":0,"CLASSIFICATION_TYPE":"U","NORAD_CAT_ID":15483,"ELEMENT_SET_NO":999,"REV_AT_EPOCH":16063,"BSTAR":5.64e-5,"MEAN_MOTION_DOT":1.44e-6,"MEAN_MOTION_DDOT":0},{"OBJECT_NAME":"SL-12 R/B(2)","OBJECT_ID":"1985-042D","EPOCH":"2026-04-24T20:14:27.820320","MEAN_MOTION":14.21994717,"ECCENTRICITY":0.0033406,"INCLINATION":71.1097,"RA_OF_ASC_NODE":350.2207,"ARG_OF_PERICENTER":51.6631,"MEAN_ANOMALY":22.7968,"EPHEMERIS_TYPE":0,"CLASSIFICATION_TYPE":"U","NORAD_CAT_ID":15772,"ELEMENT_SET_NO":999,"REV_AT_EPOCH":12095,"BSTAR":7.2892e-5,"MEAN_MOTION_DOT":1.15e-6,"MEAN_MOTION_DDOT":0},{"OBJECT_NAME":"SL-14 R/B","OBJECT_ID":"1985-069B","EPOCH":"2026-04-24T17:19:33.373920","MEAN_MOTION":14.86476087,"ECCENTRICITY":0.0019858,"INCLINATION":82.5276,"RA_OF_ASC_NODE":341.658,"ARG_OF_PERICENTER":43.4403,"MEAN_ANOMALY":316.8374,"EPHEMERIS_TYPE":0,"CLASSIFICATION_TYPE":"U","NORAD_CAT_ID":15945,"ELEMENT_SET_NO":999,"REV_AT_EPOCH":17967,"BSTAR":3.0935e-5,"MEAN_MOTION_DOT":2.99e-6,"MEAN_MOTION_DDOT":0},{"OBJECT_NAME":"SL-16 R/B","OBJECT_ID":"1985-097B","EPOCH":"2026-04-24T21:13:02.790912","MEAN_MOTION":14.1660649,"ECCENTRICITY":0.0008144,"INCLINATION":71.0044,"RA_OF_ASC_NODE":43.2972,"ARG_OF_PERICENTER":202.9652,"MEAN_ANOMALY":214.6656,"EPHEMERIS_TYPE":0,"CLASSIFICATION_TYPE":"U","NORAD_CAT_ID":16182,"ELEMENT_SET_NO":999,"REV_AT_EPOCH":9377,"BSTAR":-8.229e-5,"MEAN_MOTION_DOT":-2.12e-6,"MEAN_MOTION_DDOT":0}]
